H1 CPF 01  gfz 2022 10 31 01  8041 tandemx   
H2 1003001  6202 36605    2022 10 31 00 59 42 2022 11 05 00 00 42   120 1 1  0 0 0
H9
10 0 59885  12942.000000  0   -1890288.237  -2402541.702  -6180207.963
10 0 59885  13062.000000  0   -2588821.080  -2806767.852  -5740821.009
10 0 59885  13182.000000  0   -3248976.743  -3150402.613  -5201109.201
10 0 59885  13302.000000  0   -3858137.530  -3428210.048  -4570414.021
10 0 59885  13422.000000  0   -4404464.287  -3636296.183  -3859682.349
10 0 59885  13542.000000  0   -4877130.740  -3772166.954  -3081286.188
10 0 59885  13662.000000  0   -5266544.692  -3834759.531  -2248814.150
10 0 59885  13782.000000  0   -5564549.962  -3824445.151  -1376837.051
10 0 59885  13902.000000  0   -5764603.674  -3743002.749   -480652.322
10 0 59885  14022.000000  0   -5861924.461  -3593563.880    423988.367
10 0 59885  14142.000000  0   -5853607.589  -3380530.117   1321163.107
10 0 59885  14262.000000  0   -5738701.824  -3109463.615   2195070.190
10 0 59885  14382.000000  0   -5518245.598  -2786953.274   3030315.470
10 0 59885  14502.000000  0   -5195263.707  -2420462.224   3812190.872
10 0 59885  14622.000000  0   -4774723.386  -2018158.584   4526940.113
10 0 59885  14742.000000  0   -4263450.741  -1588734.060   5162002.590
10 0 59885  14862.000000  0   -3670012.636  -1141217.309   5706232.282
10 0 59885  14982.000000  0   -3004566.467   -684784.790   6150091.109
10 0 59885  15102.000000  0   -2278678.748   -228572.014   6485812.387
10 0 59885  15222.000000  0   -1505117.111    218509.109   6707529.780
10 0 59885  15342.000000  0    -697622.498    647942.300   6811373.022
10 0 59885  15462.000000  0     129335.610   1051767.826   6795531.228
10 0 59885  15582.000000  0     960817.855   1422729.399   6660282.402
10 0 59885  15702.000000  0    1781684.157   1754404.859   6407988.857
10 0 59885  15822.000000  0    2576868.497   2041317.436   6043058.041
10 0 59885  15942.000000  0    3331655.709   2279026.780   5571871.099
10 0 59885  16062.000000  0    4031956.936   2464198.551   5002677.189
10 0 59885  16182.000000  0    4664576.162   2594651.362   4345454.746
10 0 59885  16302.000000  0    5217465.237   2669380.663   3611743.033
10 0 59885  16422.000000  0    5679964.163   2688557.453   2814441.051
10 0 59885  16542.000000  0    6043012.647   2653500.951   1967579.216
10 0 59885  16662.000000  0    6299336.014   2566628.789   1086070.482
10 0 59885  16782.000000  0    6443597.233   2431382.882    185440.881
10 0 59885  16902.000000  0    6472509.604   2252133.557   -718453.110
10 0 59885  17022.000000  0    6384906.377   2034063.861  -1609712.711
10 0 59885  17142.000000  0    6181770.508   1783038.993  -2472682.488
10 0 59885  17262.000000  0    5866221.821   1505462.704  -3292233.083
10 0 59885  17382.000000  0    5443459.923   1208123.777  -4054030.317
10 0 59885  17502.000000  0    4920666.342    898037.843  -4744786.253
10 0 59885  17622.000000  0    4306869.471    582289.066  -5352486.098
10 0 59885  17742.000000  0    3612778.106    267874.910  -5866589.127
10 0 59885  17862.000000  0    2850586.161    -38442.498  -6278201.874
10 0 59885  17982.000000  0    2033752.252   -330275.889  -6580220.720
10 0 59885  18102.000000  0    1176761.124   -601740.809  -6767442.803
10 0 59885  18222.000000  0     294868.902   -847569.932  -6836647.567
10 0 59885  18342.000000  0    -596164.774  -1063211.284  -6786645.035
10 0 59885  18462.000000  0   -1480351.016  -1244909.807  -6618293.741
10 0 59885  18582.000000  0   -2341752.225  -1389771.338  -6334488.178
10 0 59885  18702.000000  0   -3164762.964  -1495807.822  -5940113.206
10 0 59885  18822.000000  0   -3934387.028  -1561963.640  -5441969.715
10 0 59885  18942.000000  0   -4636511.166  -1588122.888  -4848669.582
10 0 59885  19062.000000  0   -5258167.346  -1575096.456  -4170497.788
10 0 59885  19182.000000  0   -5787779.017  -1524589.371  -3419245.029
10 0 59885  19302.000000  0   -6215387.173  -1439148.876  -2608010.861
10 0 59885  19422.000000  0   -6532849.314  -1322093.472  -1750979.646
10 0 59885  19542.000000  0   -6734006.468  -1177424.595   -863173.507
10 0 59885  19662.000000  0   -6814813.987  -1009722.723     39814.201
10 0 59885  19782.000000  0   -6773430.781   -824029.216    942099.273
10 0 59885  19902.000000  0   -6610264.679   -625718.612   1827794.198
10 0 59885  20022.000000  0   -6327972.357   -420364.060   2681297.125
10 0 59885  20142.000000  0   -5931413.914   -213598.913   3487575.440
10 0 59885  20262.000000  0   -5427562.509    -10978.094   4232437.815
10 0 59885  20382.000000  0   -4825371.894    182156.235   4902787.865
10 0 59885  20502.000000  0   -4135606.919    360802.223   5486854.258
10 0 59885  20622.000000  0   -3370642.013    520416.404   5974395.108
10 0 59885  20742.000000  0   -2544230.194    657018.652   6356873.662
10 0 59885  20862.000000  0   -1671249.100    767282.222   6627602.301
10 0 59885  20982.000000  0    -767428.012    848608.288   6781853.615
10 0 59885  21102.000000  0     150937.239    899182.530   6816936.622
10 0 59885  21222.000000  0    1067277.391    918013.077   6732240.271
10 0 59885  21342.000000  0    1965047.455    904949.870   6529243.539
10 0 59885  21462.000000  0    2828024.414    860684.555   6211491.407
10 0 59885  21582.000000  0    3640601.114    786730.884   5784537.622
10 0 59885  21702.000000  0    4388071.404    685386.212   5255852.493
10 0 59885  21822.000000  0    5056900.339    559674.281   4634698.530
10 0 59885  21942.000000  0    5634977.244    413270.010   3931974.836
10 0 59885  22062.000000  0    6111845.336    250409.299   3160029.026
10 0 59885  22182.000000  0    6478900.967     75785.066   2332440.011
10 0 59885  22302.000000  0    6729557.606   -105570.005   1463777.386
10 0 59885  22422.000000  0    6859372.916   -288409.311    569340.346
10 0 59885  22542.000000  0    6866132.837   -467403.393   -335119.181
10 0 59885  22662.000000  0    6749890.860   -637274.377  -1233683.511
10 0 59885  22782.000000  0    6512960.710   -792929.451  -2110558.047
10 0 59885  22902.000000  0    6159863.656   -929589.789  -2950356.449
10 0 59885  23022.000000  0    5697232.358  -1042912.003  -3738375.165
10 0 59885  23142.000000  0    5133674.303  -1129098.762  -4460852.247
10 0 59885  23262.000000  0    4479599.162  -1184995.678  -5105204.887
10 0 59885  23382.000000  0    3747015.677  -1208173.350  -5660242.590
10 0 59885  23502.000000  0    2949301.664  -1196993.220  -6116352.740
10 0 59885  23622.000000  0    2100953.706  -1150654.859  -6465655.802
10 0 59885  23742.000000  0    1217321.780  -1069223.863  -6702130.295
10 0 59885  23862.000000  0     314333.108   -953642.076  -6821706.221
10 0 59885  23982.000000  0    -591790.562   -805718.529  -6822327.544
10 0 59885  24102.000000  0   -1484817.461   -628101.660  -6703983.375
10 0 59885  24222.000000  0   -2348790.208   -424232.896  -6468708.315
10 0 59885  24342.000000  0   -3168304.343   -198282.493  -6120549.964
10 0 59885  24462.000000  0   -3928777.249     44931.385  -5665507.467
10 0 59885  24582.000000  0   -4616707.568    300039.787  -5111439.147
10 0 59885  24702.000000  0   -5219917.267    561234.031  -4467937.942
10 0 59885  24822.000000  0   -5727774.701    822389.836  -3746177.725
10 0 59885  24942.000000  0   -6131392.715   1077202.742  -2958728.428
10 0 59885  25062.000000  0   -6423796.436   1319331.070  -2119343.279
10 0 59885  25182.000000  0   -6600056.554   1542542.968  -1242721.231
10 0 59885  25302.000000  0   -6657385.171   1740865.391   -344248.012
10 0 59885  25422.000000  0   -6595188.517   1908729.194    560280.370
10 0 59885  25542.000000  0   -6415075.184   2041107.701   1454942.474
10 0 59885  25662.000000  0   -6120820.998   2133645.910   2323980.290
10 0 59885  25782.000000  0   -5718289.622   2182776.022   3152085.985
10 0 59885  25902.000000  0   -5215311.118   2185815.519   3924679.617
10 0 59885  26022.000000  0   -4621521.489   2141045.769   4628170.852
10 0 59885  26142.000000  0   -3948169.116   2047769.919   5250199.265
10 0 59885  26262.000000  0   -3207893.574   1906348.950   5779850.182
10 0 59885  26382.000000  0   -2414480.745   1718215.547   6207843.962
10 0 59885  26502.000000  0   -1582598.393   1485864.451   6526693.677
10 0 59885  26622.000000  0    -727519.980   1212819.859   6730829.254
10 0 59885  26742.000000  0     135157.189    903581.515   6816687.696
10 0 59885  26862.000000  0     989795.707    563549.959   6782771.139
10 0 59885  26982.000000  0    1821000.309    198932.390   6629671.182
10 0 59885  27102.000000  0    2613893.934   -183369.805   6360059.721
10 0 59885  27222.000000  0    3354384.329   -575890.760   5978646.528
10 0 59885  27342.000000  0    4029417.178   -970744.219   5492101.813
10 0 59885  27462.000000  0    4627210.386  -1359780.592   4908945.270
10 0 59885  27582.000000  0    5137465.691  -1734753.688   4239402.972
10 0 59885  27702.000000  0    5551554.835  -2087493.373   3495232.827
10 0 59885  27822.000000  0    5862674.649  -2410081.957   2689519.637
10 0 59885  27942.000000  0    6065966.286  -2695029.397   1836443.796
10 0 59885  28062.000000  0    6158597.187  -2935442.487    951028.684
10 0 59885  28182.000000  0    6139803.459  -3125185.011     48869.242
10 0 59885  28302.000000  0    6010889.222  -3259023.471   -854150.880
10 0 59885  28422.000000  0    5775184.784  -3332755.192  -1742148.887
10 0 59885  28542.000000  0    5437962.071  -3343314.412  -2599530.347
10 0 59885  28662.000000  0    5006313.675  -3288855.243  -3411268.592
10 0 59885  28782.000000  0    4488996.849  -3168809.214  -4163171.071
10 0 59885  28902.000000  0    3896247.605  -2983916.929  -4842126.949
10 0 59885  29022.000000  0    3239568.902  -2736232.006  -5436331.284
10 0 59885  29142.000000  0    2531500.515  -2429098.781  -5935480.928
10 0 59885  29262.000000  0    1785376.837  -2067106.380  -6330942.753
10 0 59885  29382.000000  0    1015074.434  -1656017.956  -6615893.726
99
